0 FENGYUN 1C DEB
1 30140U 99025SV  13282.87039707  .00001081  00000-0  70066-3 0   690
2 30140 099.1163 285.2277 0046564 211.2641 267.5717 14.04399908344771
0 FENGYUN 1C DEB
1 30140U 99025SV  13285.51309705  .00001109  00000-0  71791-3 0   701
2 30140 099.1157 287.8805 0046719 203.8701 308.7207 14.04406466345147
0 FENGYUN 1C DEB
1 30140U 99025SV  13287.98202084  .00001818  00000-0  11581-2 0   714
2 30140 099.1153 290.3589 0046877 197.1182 191.1878 14.04413994345494
0 FENGYUN 1C DEB
1 30140U 99025SV  13290.50225944  .00001651  00000-0  10541-2 0   727
2 30140 099.1149 292.8878 0046974 190.1102 333.2884 14.04421895345844
0 FENGYUN 1C DEB
1 30140U 99025SV  13292.96926348  .00002081  00000-0  13209-2 0   738
2 30140 099.1156 295.3637 0047155 183.4224 206.1509 14.04428405346190
0 FENGYUN 1C DEB
1 30140U 99025SV  13295.48907700  .00002352  00000-0  14887-2 0   744
2 30140 099.1161 297.8925 0047395 176.5842 346.0836 14.04439084346549
